ONEWEB-0351             
1 49215U 21083AF  26040.23021779  .00000024  00000+0  26119-4 0  9996
2 49215  87.9213 299.9764 0001388 111.8379 248.2902 13.20773113219882
ONEWEB-0352             
1 49216U 21083AG  26040.27522947  .00000142  00000+0  35321-3 0  9999
2 49216  87.9024 345.6634 0001610  92.2562 267.8752 13.13470698214230
ONEWEB-0354             
1 49217U 21083AH  26040.25559076 -.00000003  00000+0 -40325-4 0  9990
2 49217  87.9216 299.9702 0001939  80.4831 279.6521 13.20770303219923
ONEWEB-0355             
1 49218U 21083AJ  26040.22796715  .00000312  00000+0  82037-3 0  9997
2 49218  87.9020 345.6851 0001827  86.5538 273.5800 13.13471446214104
ONEWEB-0357             
1 49219U 21083AK  26040.25243378  .00000062  00000+0  12074-3 0  9999
2 49219  87.9214 299.9662 0001541  86.2951 273.8359 13.20770324219922
ONEWEB-0332             
1 49279U 21090A   26040.26462699  .00000144  00000+0  35342-3 0  9997
2 49279  87.9013 315.2179 0001456  79.0305 281.0989 13.14504305210779
ONEWEB-0347             
1 49280U 21090B   26040.24296585 -.00000029  00000+0 -10277-3 0  9990
2 49280  87.9213 299.9762 0001400  71.1110 289.0175 13.20771201214154
ONEWEB-0349             
1 49281U 21090C   26040.27454666  .00000076  00000+0  15527-3 0  9993
2 49281  87.9214 299.9700 0001655  80.2098 279.9223 13.20775436212947
ONEWEB-0353             
1 49282U 21090D   26040.25670501  .00000004  00000+0 -24658-4 0  9998
2 49282  87.9026 315.2111 0001426  74.1305 285.9982 13.14504560210775
ONEWEB-0356             
1 49283U 21090E   26040.27295460  .00000080  00000+0  16449-3 0  9999
2 49283  87.9217 299.9639 0001929  51.2869 308.8437 13.20770819212940
ONEWEB-0358             
1 49284U 21090F   26040.22718470  .00000043  00000+0  73069-4 0  9997
2 49284  87.9214 299.9752 0001783  77.0157 283.1175 13.20770411213660
ONEWEB-0359             
1 49285U 21090G   26040.22404569 -.00000932  00000+0 -23242-2 0  9994
2 49285  87.9217 299.9728 0002030  80.8096 279.3267 13.20760183213649
ONEWEB-0360             
1 49286U 21090H   26040.21456159  .00000052  00000+0  95586-4 0  9999
2 49286  87.9215 299.9823 0001786  80.0070 280.1265 13.20771250212953
ONEWEB-0361             
1 49287U 21090J   26040.27137908  .00000134  00000+0  29872-3 0  9999
2 49287  87.9214 299.9677 0001725  70.8781 289.2539 13.20771084213410
ONEWEB-0362             
1 49288U 21090K   26040.27428595 -.00000088  00000+0 -25271-3 0  9994
2 49288  87.9245 330.4449 0001815  88.4996 271.6345 13.19724541210046
ONEWEB-0363             
1 49289U 21090L   26040.28715371  .00000034  00000+0  52606-4 0  9999
2 49289  87.9217 299.9659 0001824  67.5727 292.5600 13.20770007213429
