[{"OBJECT_NAME":"ONEWEB-0351","OBJECT_ID":"2021-083AF","EPOCH":"2026-02-09T05:31:30.817056","MEAN_MOTION":13.20773113,"ECCENTRICITY":0.00013884,"INCLINATION":87.9213,"RA_OF_ASC_NODE":299.9764,"ARG_OF_PERICENTER":111.8379,"MEAN_ANOMALY":248.2902,"EPHEMERIS_TYPE":0,"CLASSIFICATION_TYPE":"U","NORAD_CAT_ID":49215,"ELEMENT_SET_NO":999,"REV_AT_EPOCH":21988,"BSTAR":2.6119375e-5,"MEAN_MOTION_DOT":2.4e-7,"MEAN_MOTION_DDOT":0},{"OBJECT_NAME":"ONEWEB-0352","OBJECT_ID":"2021-083AG","EPOCH":"2026-02-09T06:36:19.826208","MEAN_MOTION":13.13470698,"ECCENTRICITY":0.00016108,"INCLINATION":87.9024,"RA_OF_ASC_NODE":345.6634,"ARG_OF_PERICENTER":92.2562,"MEAN_ANOMALY":267.8752,"EPHEMERIS_TYPE":0,"CLASSIFICATION_TYPE":"U","NORAD_CAT_ID":49216,"ELEMENT_SET_NO":999,"REV_AT_EPOCH":21423,"BSTAR":0.00035321363,"MEAN_MOTION_DOT":1.42e-6,"MEAN_MOTION_DDOT":0},{"OBJECT_NAME":"ONEWEB-0354","OBJECT_ID":"2021-083AH","EPOCH":"2026-02-09T06:08:03.041664","MEAN_MOTION":13.20770303,"ECCENTRICITY":0.00019396,"INCLINATION":87.9216,"RA_OF_ASC_NODE":299.9702,"ARG_OF_PERICENTER":80.4831,"MEAN_ANOMALY":279.6521,"EPHEMERIS_TYPE":0,"CLASSIFICATION_TYPE":"U","NORAD_CAT_ID":49217,"ELEMENT_SET_NO":999,"REV_AT_EPOCH":21992,"BSTAR":-4.0325005e-5,"MEAN_MOTION_DOT":-3.0e-8,"MEAN_MOTION_DDOT":0},{"OBJECT_NAME":"ONEWEB-0355","OBJECT_ID":"2021-083AJ","EPOCH":"2026-02-09T05:28:16.361760","MEAN_MOTION":13.13471446,"ECCENTRICITY":0.00018276,"INCLINATION":87.902,"RA_OF_ASC_NODE":345.6851,"ARG_OF_PERICENTER":86.5538,"MEAN_ANOMALY":273.58,"EPHEMERIS_TYPE":0,"CLASSIFICATION_TYPE":"U","NORAD_CAT_ID":49218,"ELEMENT_SET_NO":999,"REV_AT_EPOCH":21410,"BSTAR":0.00082037082,"MEAN_MOTION_DOT":3.12e-6,"MEAN_MOTION_DDOT":0},{"OBJECT_NAME":"ONEWEB-0357","OBJECT_ID":"2021-083AK","EPOCH":"2026-02-09T06:03:30.278592","MEAN_MOTION":13.20770324,"ECCENTRICITY":0.00015416,"INCLINATION":87.9214,"RA_OF_ASC_NODE":299.9662,"ARG_OF_PERICENTER":86.2951,"MEAN_ANOMALY":273.8359,"EPHEMERIS_TYPE":0,"CLASSIFICATION_TYPE":"U","NORAD_CAT_ID":49219,"ELEMENT_SET_NO":999,"REV_AT_EPOCH":21992,"BSTAR":0.00012073759,"MEAN_MOTION_DOT":6.2e-7,"MEAN_MOTION_DDOT":0},{"OBJECT_NAME":"ONEWEB-0332","OBJECT_ID":"2021-090A","EPOCH":"2026-02-09T06:21:03.771936","MEAN_MOTION":13.14504305,"ECCENTRICITY":0.00014564,"INCLINATION":87.9013,"RA_OF_ASC_NODE":315.2179,"ARG_OF_PERICENTER":79.0305,"MEAN_ANOMALY":281.0989,"EPHEMERIS_TYPE":0,"CLASSIFICATION_TYPE":"U","NORAD_CAT_ID":49279,"ELEMENT_SET_NO":999,"REV_AT_EPOCH":21077,"BSTAR":0.00035341914,"MEAN_MOTION_DOT":1.44e-6,"MEAN_MOTION_DDOT":0},{"OBJECT_NAME":"ONEWEB-0347","OBJECT_ID":"2021-090B","EPOCH":"2026-02-09T05:49:52.249440","MEAN_MOTION":13.20771201,"ECCENTRICITY":0.00014007,"INCLINATION":87.9213,"RA_OF_ASC_NODE":299.9762,"ARG_OF_PERICENTER":71.111,"MEAN_ANOMALY":289.0175,"EPHEMERIS_TYPE":0,"CLASSIFICATION_TYPE":"U","NORAD_CAT_ID":49280,"ELEMENT_SET_NO":999,"REV_AT_EPOCH":21415,"BSTAR":-0.00010276886,"MEAN_MOTION_DOT":-2.9e-7,"MEAN_MOTION_DDOT":0},{"OBJECT_NAME":"ONEWEB-0349","OBJECT_ID":"2021-090C","EPOCH":"2026-02-09T06:35:20.831424","MEAN_MOTION":13.20775436,"ECCENTRICITY":0.00016552,"INCLINATION":87.9214,"RA_OF_ASC_NODE":299.97,"ARG_OF_PERICENTER":80.2098,"MEAN_ANOMALY":279.9223,"EPHEMERIS_TYPE":0,"CLASSIFICATION_TYPE":"U","NORAD_CAT_ID":49281,"ELEMENT_SET_NO":999,"REV_AT_EPOCH":21294,"BSTAR":0.00015526515,"MEAN_MOTION_DOT":7.6e-7,"MEAN_MOTION_DDOT":0},{"OBJECT_NAME":"ONEWEB-0353","OBJECT_ID":"2021-090D","EPOCH":"2026-02-09T06:09:39.312864","MEAN_MOTION":13.1450456,"ECCENTRICITY":0.00014267,"INCLINATION":87.9026,"RA_OF_ASC_NODE":315.2111,"ARG_OF_PERICENTER":74.1305,"MEAN_ANOMALY":285.9982,"EPHEMERIS_TYPE":0,"CLASSIFICATION_TYPE":"U","NORAD_CAT_ID":49282,"ELEMENT_SET_NO":999,"REV_AT_EPOCH":21077,"BSTAR":-2.4657673e-5,"MEAN_MOTION_DOT":4.0e-8,"MEAN_MOTION_DDOT":0},{"OBJECT_NAME":"ONEWEB-0356","OBJECT_ID":"2021-090E","EPOCH":"2026-02-09T06:33:03.277440","MEAN_MOTION":13.20770819,"ECCENTRICITY":0.00019291,"INCLINATION":87.9217,"RA_OF_ASC_NODE":299.9639,"ARG_OF_PERICENTER":51.2869,"MEAN_ANOMALY":308.8437,"EPHEMERIS_TYPE":0,"CLASSIFICATION_TYPE":"U","NORAD_CAT_ID":49283,"ELEMENT_SET_NO":999,"REV_AT_EPOCH":21294,"BSTAR":0.00016449029,"MEAN_MOTION_DOT":8.0e-7,"MEAN_MOTION_DDOT":0},{"OBJECT_NAME":"ONEWEB-0358","OBJECT_ID":"2021-090F","EPOCH":"2026-02-09T05:27:08.758080","MEAN_MOTION":13.20770411,"ECCENTRICITY":0.00017839,"INCLINATION":87.9214,"RA_OF_ASC_NODE":299.9752,"ARG_OF_PERICENTER":77.0157,"MEAN_ANOMALY":283.1175,"EPHEMERIS_TYPE":0,"CLASSIFICATION_TYPE":"U","NORAD_CAT_ID":49284,"ELEMENT_SET_NO":999,"REV_AT_EPOCH":21366,"BSTAR":7.3069114e-5,"MEAN_MOTION_DOT":4.3e-7,"MEAN_MOTION_DDOT":0},{"OBJECT_NAME":"ONEWEB-0359","OBJECT_ID":"2021-090G","EPOCH":"2026-02-09T05:22:37.547616","MEAN_MOTION":13.20760183,"ECCENTRICITY":0.00020307,"INCLINATION":87.9217,"RA_OF_ASC_NODE":299.9728,"ARG_OF_PERICENTER":80.8096,"MEAN_ANOMALY":279.3267,"EPHEMERIS_TYPE":0,"CLASSIFICATION_TYPE":"U","NORAD_CAT_ID":49285,"ELEMENT_SET_NO":999,"REV_AT_EPOCH":21364,"BSTAR":-0.0023241668,"MEAN_MOTION_DOT":-9.32e-6,"MEAN_MOTION_DDOT":0},{"OBJECT_NAME":"ONEWEB-0360","OBJECT_ID":"2021-090H","EPOCH":"2026-02-09T05:08:58.121376","MEAN_MOTION":13.2077125,"ECCENTRICITY":0.00017866,"INCLINATION":87.9215,"RA_OF_ASC_NODE":299.9823,"ARG_OF_PERICENTER":80.007,"MEAN_ANOMALY":280.1265,"EPHEMERIS_TYPE":0,"CLASSIFICATION_TYPE":"U","NORAD_CAT_ID":49286,"ELEMENT_SET_NO":999,"REV_AT_EPOCH":21295,"BSTAR":9.5586082e-5,"MEAN_MOTION_DOT":5.2e-7,"MEAN_MOTION_DDOT":0},{"OBJECT_NAME":"ONEWEB-0361","OBJECT_ID":"2021-090J","EPOCH":"2026-02-09T06:30:47.152512","MEAN_MOTION":13.20771084,"ECCENTRICITY":0.00017259,"INCLINATION":87.9214,"RA_OF_ASC_NODE":299.9677,"ARG_OF_PERICENTER":70.8781,"MEAN_ANOMALY":289.2539,"EPHEMERIS_TYPE":0,"CLASSIFICATION_TYPE":"U","NORAD_CAT_ID":49287,"ELEMENT_SET_NO":999,"REV_AT_EPOCH":21341,"BSTAR":0.00029872094,"MEAN_MOTION_DOT":1.34e-6,"MEAN_MOTION_DDOT":0},{"OBJECT_NAME":"ONEWEB-0362","OBJECT_ID":"2021-090K","EPOCH":"2026-02-09T06:34:58.306080","MEAN_MOTION":13.19724541,"ECCENTRICITY":0.00018157,"INCLINATION":87.9245,"RA_OF_ASC_NODE":330.4449,"ARG_OF_PERICENTER":88.4996,"MEAN_ANOMALY":271.6345,"EPHEMERIS_TYPE":0,"CLASSIFICATION_TYPE":"U","NORAD_CAT_ID":49288,"ELEMENT_SET_NO":999,"REV_AT_EPOCH":21004,"BSTAR":-0.00025271421,"MEAN_MOTION_DOT":-8.8e-7,"MEAN_MOTION_DDOT":0},{"OBJECT_NAME":"ONEWEB-0363","OBJECT_ID":"2021-090L","EPOCH":"2026-02-09T06:53:30.080544","MEAN_MOTION":13.20770007,"ECCENTRICITY":0.00018244,"INCLINATION":87.9217,"RA_OF_ASC_NODE":299.9659,"ARG_OF_PERICENTER":67.5727,"MEAN_ANOMALY":292.56,"EPHEMERIS_TYPE":0,"CLASSIFICATION_TYPE":"U","NORAD_CAT_ID":49289,"ELEMENT_SET_NO":999,"REV_AT_EPOCH":21342,"BSTAR":5.2605728e-5,"MEAN_MOTION_DOT":3.4e-7,"MEAN_MOTION_DDOT":0}]
